NORAD_CAT_ID,OBJECT_NAME,OBJECT_TYPE,EPOCH,MEAN_MOTION,ECCENTRICITY,INCLINATION,RA_OF_ASC_NODE,ARG_OF_PERICENTER,MEAN_ANOMALY,BSTAR,MEAN_MOTION_DOT,MEAN_MOTION_DDOT,TLE_LINE0,TLE_LINE1,TLE_LINE2,SEMIMAJOR_AXIS,PERIOD,APOGEE,PERIGEE,DECAYED
54008.0,STARLINK-5145,PAYLOAD,2023-05-08 09:37:38,15.08834721,0.0001192,53.2155,175.8438,75.9922,284.1202,1.8399e-05,5e-08,0.0,0 STARLINK-5145,1 54008U 22125AW  23128.40114403  .00000005  00000-0  18399-4 0  9991,2 54008  53.2155 175.8438 0001192  75.9922 284.1202 15.08834721 33210,6917.897,95.438,540.586,538.937,0.0
54008.0,STARLINK-5145,PAYLOAD,2023-05-08 20:45:20,15.08839312,0.0001216,53.2156,173.7624,74.7988,285.3138,1.5499e-05,-4.1e-07,0.0,0 STARLINK-5145,1 54008U 22125AW  23128.86482119 -.00000041  00000-0  15499-4 0  9992,2 54008  53.2156 173.7624 0001216  74.7988 285.3138 15.08839312 33235,6917.882,95.438,540.589,538.906,0.0
54008.0,STARLINK-5145,PAYLOAD,2023-05-09 12:39:11,15.08843727,0.000123,53.2157,170.7884,76.8006,283.3123,5.4212e-05,5.75e-06,0.0,0 STARLINK-5145,1 54008U 22125AW  23129.52721668  .00000575  00000-0  54212-4 0  9998,2 54008  53.2157 170.7884 0001230  76.8006 283.3123 15.08843727 33339,6917.869,95.437,540.585,538.883,0.0
54008.0,STARLINK-5145,PAYLOAD,2023-05-10 12:29:58,15.08850049,0.000106,53.2157,166.3262,88.3094,271.802,-0.00015787,-2.8e-05,0.0,0 STARLINK-5145,1 54008U 22125AW  23130.52082151 -.00002800  00000-0 -15787-3 0  9995,2 54008  53.2157 166.3262 0001060  88.3094 271.8020 15.08850049 33485,6917.85,95.437,540.448,538.981,0.0
54008.0,STARLINK-5145,PAYLOAD,2023-05-10 18:51:31,15.08835921,0.0001116,53.2155,165.1376,83.5795,276.5324,-1.7896e-05,-5.73e-06,0.0,0 STARLINK-5145,1 54008U 22125AW  23130.78578605 -.00000573  00000-0 -17896-4 0  9996,2 54008  53.2155 165.1376 0001116  83.5795 276.5324 15.08835921 33529,6917.893,95.438,540.53,538.986,0.0
54008.0,STARLINK-5145,PAYLOAD,2023-05-11 09:09:59,15.08840352,0.0001143,53.2159,162.4605,90.4472,269.6651,2.0236e-05,3.4e-07,0.0,0 STARLINK-5145,1 54008U 22125AW  23131.38194271  .00000034  00000-0  20236-4 0  9998,2 54008  53.2159 162.4605 0001143  90.4472 269.6651 15.08840352 33662,6917.879,95.438,540.535,538.954,0.0
54008.0,STARLINK-5145,PAYLOAD,2023-05-11 18:42:18,15.08835794,0.0001072,53.2157,160.6766,95.47,264.6415,2.0285e-07,-2.85e-06,0.0,0 STARLINK-5145,1 54008U 22125AW  23131.77938621 -.00000285  00000-0  20285-6 0  9991,2 54008  53.2157 160.6766 0001072  95.4700 264.6415 15.08835794 33676,6917.893,95.438,540.5,539.017,0.0
54008.0,STARLINK-5145,PAYLOAD,2023-05-12 18:33:06,15.08835621,0.00011,53.2155,156.2159,90.3235,269.7884,1.9371e-05,2e-07,0.0,0 STARLINK-5145,1 54008U 22125AW  23132.77298967  .00000020  00000-0  19371-4 0  9992,2 54008  53.2155 156.2159 0001100  90.3235 269.7884 15.08835621 33877,6917.894,95.438,540.52,538.998,0.0
54008.0,STARLINK-5145,PAYLOAD,2023-05-13 08:51:34,15.08841614,0.0001131,53.2153,153.5381,108.7913,251.3202,4.7208e-05,4.64e-06,0.0,0 STARLINK-5145,1 54008U 22125AW  23133.36914450  .00000464  00000-0  47208-4 0  9992,2 54008  53.2153 153.5381 0001131 108.7913 251.3202 15.08841614 33918,6917.875,95.437,540.523,538.958,0.0
54008.0,STARLINK-5145,PAYLOAD,2023-05-13 18:23:53,15.08832711,4.2e-05,53.2155,151.7586,137.049,223.0535,-7.0165e-06,-3.99e-06,0.0,0 STARLINK-5145,1 54008U 22125AW  23133.76658892 -.00000399  00000-0 -70165-5 0  9999,2 54008  53.2155 151.7586 0000420 137.0490 223.0535 15.08832711 33971,6917.903,95.438,540.058,539.477,0.0
54008.0,STARLINK-5145,PAYLOAD,2023-05-14 10:17:44,15.08836016,0.0001075,53.2153,148.7824,95.7924,264.3191,1.7005e-05,-1.7e-07,0.0,0 STARLINK-5145,1 54008U 22125AW  23134.42899157 -.00000017  00000-0  17005-4 0  9993,2 54008  53.2153 148.7824 0001075  95.7924 264.3191 15.08836016 34125,6917.893,95.438,540.501,539.014,0.0
54008.0,STARLINK-5145,PAYLOAD,2023-05-14 18:14:40,15.08836174,0.0001052,53.2153,147.2953,91.1517,268.9595,1.1945e-05,-9.8e-07,0.0,0 STARLINK-5145,1 54008U 22125AW  23134.76019218 -.00000098  00000-0  11945-4 0  9998,2 54008  53.2153 147.2953 0001052  91.1517 268.9595 15.08836174 34128,6917.892,95.438,540.485,539.029,0.0
54008.0,STARLINK-5145,PAYLOAD,2023-05-15 10:08:31,15.08841401,0.0001125,53.2154,144.3212,89.1449,270.9672,1.6589e-05,-2.4e-07,0.0,0 STARLINK-5145,1 54008U 22125AW  23135.42258884 -.00000024  00000-0  16589-4 0  9994,2 54008  53.2154 144.3212 0001125  89.1449 270.9672 15.08841401 34226,6917.876,95.437,540.519,538.963,0.0
54008.0,STARLINK-5145,PAYLOAD,2023-05-15 18:05:27,15.08840511,0.0001118,53.2155,142.8342,88.7744,271.3377,2.1172e-05,4.9e-07,0.0,0 STARLINK-5145,1 54008U 22125AW  23135.75378880  .00000049  00000-0  21172-4 0  9999,2 54008  53.2155 142.8342 0001118  88.7744 271.3377 15.08840511 34328,6917.879,95.438,540.517,538.97,0.0
54008.0,STARLINK-5145,PAYLOAD,2023-05-16 06:48:32,15.08840617,0.0001109,53.2156,140.4552,88.5057,271.6062,5.6531e-05,6.12e-06,0.0,0 STARLINK-5145,1 54008U 22125AW  23136.28370743  .00000612  00000-0  56531-4 0  9991,2 54008  53.2156 140.4552 0001109  88.5057 271.6062 15.08840617 34355,6917.879,95.438,540.511,538.976,0.0
54008.0,STARLINK-5145,PAYLOAD,2023-05-17 06:39:19,15.08839425,0.0001122,53.2155,135.9947,87.6404,272.4716,-8.2537e-07,-3.01e-06,0.0,0 STARLINK-5145,1 54008U 22125AW  23137.27730994 -.00000301  00000-0 -82537-6 0  9993,2 54008  53.2155 135.9947 0001122  87.6404 272.4716 15.08839425 34554,6917.882,95.438,540.523,538.971,0.0
54008.0,STARLINK-5145,PAYLOAD,2023-05-18 11:16:15,15.08840028,0.000121,53.216,130.6426,88.4392,271.6738,5.1133e-06,-2.06e-06,0.0,0 STARLINK-5145,1 54008U 22125AW  23138.46962960 -.00000206  00000-0  51133-5 0  9995,2 54008  53.2160 130.6426 0001210  88.4392 271.6738 15.08840028 34733,6917.88,95.438,540.582,538.908,0.0
54008.0,STARLINK-5145,PAYLOAD,2023-05-18 16:02:25,15.08836674,0.0001168,53.2156,129.7501,86.8229,273.2897,-3.3637e-06,-3.41e-06,0.0,0 STARLINK-5145,1 54008U 22125AW  23138.66835217 -.00000341  00000-0 -33637-5 0  9991,2 54008  53.2156 129.7501 0001168  86.8229 273.2897 15.08836674 34718,6917.891,95.438,540.564,538.948,0.0
54008.0,STARLINK-5145,PAYLOAD,2023-05-19 15:53:12,15.08835465,0.0001198,53.2159,125.2899,86.6048,273.5081,1.0369e-05,-1.23e-06,0.0,0 STARLINK-5145,1 54008U 22125AW  23139.66195427 -.00000123  00000-0  10369-4 0  9997,2 54008  53.2159 125.2899 0001198  86.6048 273.5081 15.08835465 34919,6917.894,95.438,540.588,538.93,0.0
54008.0,STARLINK-5145,PAYLOAD,2023-05-20 15:43:59,15.08840613,0.0001236,53.2162,120.8298,90.055,270.0583,4.8011e-05,4.76e-06,0.0,0 STARLINK-5145,1 54008U 22125AW  23140.65555158  .00000476  00000-0  48011-4 0  9994,2 54008  53.2162 120.8298 0001236  90.0550 270.0583 15.08840613 35019,6917.879,95.438,540.599,538.888,0.0
54008.0,STARLINK-5145,PAYLOAD,2023-05-21 07:37:50,15.08849827,0.0001262,53.2165,117.8564,93.0303,267.0834,0.00010399,1.368e-05,0.0,0 STARLINK-5145,1 54008U 22125AW  23141.31794195  .00001368  00000-0  10399-3 0  9992,2 54008  53.2165 117.8564 0001262  93.0303 267.0834 15.08849827 35169,6917.85,95.437,540.588,538.842,0.0
54008.0,STARLINK-5145,PAYLOAD,2023-05-21 15:34:47,15.08830737,0.0001499,53.2166,116.3696,81.5372,278.579,-4.43e-05,-9.93e-06,0.0,0 STARLINK-5145,1 54008U 22125AW  23141.64916027 -.00000993  00000-0 -44300-4 0  9993,2 54008  53.2166 116.3696 0001499  81.5372 278.5790 15.08830737 35214,6917.909,95.438,540.811,538.737,0.0
54008.0,STARLINK-5145,PAYLOAD,2023-05-21 21:56:20,15.08829396,0.0001573,53.2163,115.1811,81.1614,278.9556,-3.6539e-05,-8.69e-06,0.0,0 STARLINK-5145,1 54008U 22125AW  23141.91412257 -.00000869  00000-0 -36539-4 0  9996,2 54008  53.2163 115.1811 0001573  81.1614 278.9556 15.08829396 35207,6917.913,95.438,540.866,538.69,0.0
54008.0,STARLINK-5145,PAYLOAD,2023-05-22 07:28:39,15.08827454,0.0001238,53.2163,113.3938,87.2661,272.8473,-6.9059e-05,-1.386e-05,0.0,0 STARLINK-5145,1 54008U 22125AW  23142.31156712 -.00001386  00000-0 -69059-4 0  9990,2 54008  53.2163 113.3938 0001238  87.2661 272.8473 15.08827454 35264,6917.919,95.438,540.64,538.927,0.0
54008.0,STARLINK-5145,PAYLOAD,2023-05-22 15:25:34,15.08833036,0.0001268,53.217,111.9075,87.0633,273.0504,-3.5545e-05,-8.53e-06,0.0,0 STARLINK-5145,1 54008U 22125AW  23142.64276446 -.00000853  00000-0 -35545-4 0  9994,2 54008  53.2170 111.9075 0001268  87.0633 273.0504 15.08833036 35315,6917.902,95.438,540.644,538.889,0.0
54008.0,STARLINK-5145,PAYLOAD,2023-05-23 02:33:16,15.08841622,0.0001263,53.2167,109.8268,81.2568,278.8567,-1.6093e-05,-5.44e-06,0.0,0 STARLINK-5145,1 54008U 22125AW  23143.10643902 -.00000544  00000-0 -16093-4 0  9995,2 54008  53.2167 109.8268 0001263  81.2568 278.8567 15.08841622 35434,6917.875,95.437,540.614,538.867,0.0
54008.0,STARLINK-5145,PAYLOAD,2023-05-23 15:16:20,15.08846236,0.0001222,53.217,107.4468,87.6599,272.4533,1.7664e-05,-7e-08,0.0,0 STARLINK-5145,1 54008U 22125AW  23143.63635388 -.00000007  00000-0  17664-4 0  9990,2 54008  53.2170 107.4468 0001222  87.6599 272.4533 15.08846236 35465,6917.861,95.437,540.572,538.881,0.0
54008.0,STARLINK-5145,PAYLOAD,2023-05-24 07:10:12,15.08842694,0.0001259,53.2168,104.4731,83.852,276.2615,0.00017722,2.534e-05,0.0,0 STARLINK-5145,1 54008U 22125AW  23144.29875208  .00002534  00000-0  17722-3 0  9990,2 54008  53.2168 104.4731 0001259  83.8520 276.2615 15.08842694 35618,6917.872,95.437,540.608,538.866,0.0
54008.0,STARLINK-5145,PAYLOAD,2023-05-26 03:41:00,15.08819614,0.0001397,53.2162,96.1427,90.7976,269.3176,0.00026705,3.962e-05,0.0,0 STARLINK-5145,1 54008U 22125AW  23146.15348164  .00003962  00000-0  26705-3 0  9990,2 54008  53.2162  96.1427 0001397  90.7976 269.3176 15.08819614 35897,6917.943,95.439,540.774,538.841,0.0
54008.0,STARLINK-5145,PAYLOAD,2023-05-26 19:34:52,15.08831201,0.0001286,53.2168,93.1769,95.3689,264.7449,2.0421e-05,3.7e-07,0.0,0 STARLINK-5145,1 54008U 22125AW  23146.81588537  .00000037  00000-0  20421-4 0  9993,2 54008  53.2168  93.1769 0001286  95.3689 264.7449 15.08831201 35942,6917.907,95.438,540.662,538.883,0.0
